NORAD_CAT_ID,OBJECT_NAME,OBJECT_TYPE,EPOCH,MEAN_MOTION,ECCENTRICITY,INCLINATION,RA_OF_ASC_NODE,ARG_OF_PERICENTER,MEAN_ANOMALY,BSTAR,MEAN_MOTION_DOT,MEAN_MOTION_DDOT,TLE_LINE0,TLE_LINE1,TLE_LINE2,SEMIMAJOR_AXIS,PERIOD,APOGEE,PERIGEE,DECAYED
51112.0,STARLINK-3374,PAYLOAD,2022-09-13 11:58:00,15.08852017,0.0002169,53.2171,244.705,46.9326,313.1847,4.552100000000002e-05,4.36e-06,0.0,0 STARLINK-3374,1 51112U 22005J   22256.49861426  .00000436  00000-0  45521-4 0  9990,2 51112  53.2171 244.7050 0002169  46.9326 313.1847 15.08852017 36677,6917.844,95.437,541.2090000000002,538.2080000000002,0.0
51112.0,STARLINK-3374,PAYLOAD,2022-09-14 03:51:51,15.08842336,0.0002005999999999,53.2171,241.731,46.2108,313.905,-2.8867e-05,-7.48e-06,0.0,0 STARLINK-3374,1 51112U 22005J   22257.16101407 -.00000748  00000-0 -28867-4 0  9993,2 51112  53.2171 241.7310 0002006  46.2108 313.9050 15.08842336 37885,6917.873000000001,95.437,541.126,538.351,0.0
51112.0,STARLINK-3374,PAYLOAD,2022-09-14 10:13:24,15.08845345,0.0002084,53.2176,240.542,46.1221,313.9943,-9.0315e-05,-1.726e-05,0.0,0 STARLINK-3374,1 51112U 22005J   22257.42597480 -.00001726  00000-0 -90315-4 0  9996,2 51112  53.2176 240.5420 0002084  46.1221 313.9943 15.08845345 36816,6917.864000000001,95.437,541.1709999999998,538.2869999999998,0.0
51112.0,STARLINK-3374,PAYLOAD,2022-09-14 16:34:56,15.08844897,0.0002079,53.2176,239.3528,47.1153,313.0013,5.0592e-05,5.17e-06,0.0,0 STARLINK-3374,1 51112U 22005J   22257.69093476  .00000517  00000-0  50592-4 0  9999,2 51112  53.2176 239.3528 0002079  47.1153 313.0013 15.08844897 36854,6917.865,95.437,541.169,538.2919999999998,0.0
51112.0,STARLINK-3374,PAYLOAD,2022-09-15 05:18:01,15.08845911,0.0002035,53.2184,236.974,47.4103,312.7061,-9.1774e-06,-4.34e-06,0.0,0 STARLINK-3374,1 51112U 22005J   22258.22085472 -.00000434  00000-0 -91774-5 0  9994,2 51112  53.2184 236.9740 0002035  47.4103 312.7061 15.08845911 38042,6917.861999999999,95.437,541.135,538.32,0.0
51112.0,STARLINK-3374,PAYLOAD,2022-09-15 10:04:11,15.08841774,0.0001976999999999,53.2183,236.082,44.603,315.5121,-5.294300000000001e-05,-1.131e-05,0.0,0 STARLINK-3374,1 51112U 22005J   22258.41957715 -.00001131  00000-0 -52943-4 0  9992,2 51112  53.2183 236.0820 0001977  44.6030 315.5121 15.08841774 36963,6917.875,95.437,541.1080000000002,538.372,0.0
51112.0,STARLINK-3374,PAYLOAD,2022-09-16 08:19:35,15.08832165,0.0001948,53.2182,231.9192,44.7869,315.328,2.7962e-05,1.57e-06,0.0,0 STARLINK-3374,1 51112U 22005J   22259.34694155  .00000157  00000-0  27962-4 0  9999,2 51112  53.2182 231.9192 0001948  44.7869 315.3280 15.08832165 38215,6917.904,95.438,541.117,538.422,0.0
51112.0,STARLINK-3374,PAYLOAD,2022-09-17 09:45:46,15.08823523,0.0001979,53.2182,227.1617,45.5695,314.5459,-5.5901e-07,-2.97e-06,0.0,0 STARLINK-3374,1 51112U 22005J   22260.40679279 -.00000297  00000-0 -55901-6 0  9991,2 51112  53.2182 227.1617 0001979  45.5695 314.5459 15.08823523 38378,6917.931,95.439,541.165,538.427,0.0
51112.0,STARLINK-3374,PAYLOAD,2022-09-17 20:53:28,15.08832604,0.000196,53.2181,225.0801,45.0766,315.0384,2.3706e-05,8.9e-07,0.0,0 STARLINK-3374,1 51112U 22005J   22260.87046940  .00000089  00000-0  23706-4 0  9998,2 51112  53.2181 225.0801 0001960  45.0766 315.0384 15.08832604 38444,6917.903,95.438,541.124,538.4119999999998,0.0
51112.0,STARLINK-3374,PAYLOAD,2022-09-18 08:01:10,15.08842455,0.0001985,53.2184,222.9987,45.9791,314.1364,3.4071e-05,2.54e-06,0.0,0 STARLINK-3374,1 51112U 22005J   22261.33414463  .00000254  00000-0  34071-4 0  9990,2 51112  53.2184 222.9987 0001985  45.9791 314.1364 15.08842455 38513,6917.873000000001,95.437,541.111,538.365,0.0
51112.0,STARLINK-3374,PAYLOAD,2022-09-18 20:44:14,15.08841479,0.0001908,53.2187,220.6199,45.8575,314.2574,0.00017634,2.52e-05,0.0,0 STARLINK-3374,1 51112U 22005J   22261.86406238  .00002520  00000-0  17634-3 0  9992,2 51112  53.2187 220.6199 0001908  45.8575 314.2574 15.08841479 37484,6917.876,95.437,541.061,538.4209999999998,0.0
51112.0,STARLINK-3374,PAYLOAD,2022-09-19 06:16:34,15.08839424,0.0001996999999999,53.2177,218.8358,45.9496,314.166,0.00018546,2.665e-05,0.0,0 STARLINK-3374,1 51112U 22005J   22262.26150622  .00002665  00000-0  18546-3 0  9993,2 51112  53.2177 218.8358 0001997  45.9496 314.1660 15.08839424 37549,6917.882,95.438,541.129,538.366,0.0
51112.0,STARLINK-3374,PAYLOAD,2022-09-19 20:35:02,15.08845395,0.0002009999999999,53.2176,216.1593,45.222,314.8935,0.00016131,2.28e-05,0.0,0 STARLINK-3374,1 51112U 22005J   22262.85766299  .00002280  00000-0  16131-3 0  9992,2 51112  53.2176 216.1593 0002010  45.2220 314.8935 15.08845395 38744,6917.864000000001,95.437,541.119,538.3380000000002,0.0
51112.0,STARLINK-3374,PAYLOAD,2022-09-20 06:07:20,15.0884214,0.0001909,53.2174,214.375,45.5928,314.522,8.221499999999999e-06,-1.57e-06,0.0,0 STARLINK-3374,1 51112U 22005J   22263.25510283 -.00000157  00000-0  82215-5 0  9997,2 51112  53.2174 214.3750 0001909  45.5928 314.5220 15.08842140 37693,6917.874,95.437,541.059,538.418,0.0
51112.0,STARLINK-3374,PAYLOAD,2022-09-20 14:04:16,15.08847288,0.0001867,53.2175,212.8881,46.7694,313.3454,0.00010693,1.414e-05,0.0,0 STARLINK-3374,1 51112U 22005J   22263.58630009  .00001414  00000-0  10693-3 0  9997,2 51112  53.2175 212.8881 0001867  46.7694 313.3454 15.08847288 37748,6917.858,95.437,541.015,538.432,0.0
51112.0,STARLINK-3374,PAYLOAD,2022-09-21 04:22:44,15.08842324,0.000192,53.2181,210.2127,49.3055,310.8104,3.8465e-06,-2.27e-06,0.0,0 STARLINK-3374,1 51112U 22005J   22264.18246310 -.00000227  00000-0  38465-5 0  9993,2 51112  53.2181 210.2127 0001920  49.3055 310.8104 15.08842324 38943,6917.873000000001,95.437,541.067,538.41,0.0
51112.0,STARLINK-3374,PAYLOAD,2022-09-21 07:33:31,15.08843753,0.0001943999999999,53.2181,209.6177,48.8427,311.2733,-8.3676e-06,-4.21e-06,0.0,0 STARLINK-3374,1 51112U 22005J   22264.31494255 -.00000421  00000-0 -83676-5 0  9992,2 51112  53.2181 209.6177 0001944  48.8427 311.2733 15.08843753 37852,6917.869000000002,95.437,541.0790000000002,538.389,0.0
51112.0,STARLINK-3374,PAYLOAD,2022-09-22 02:38:09,15.08834945,0.0001966999999999,53.2182,206.0497,49.0,311.1162,6.6104e-05,7.64e-06,0.0,0 STARLINK-3374,1 51112U 22005J   22265.10982895  .00000764  00000-0  66104-4 0  9996,2 51112  53.2182 206.0497 0001967  49.0000 311.1162 15.08834945 39089,6917.896,95.438,541.122,538.4,0.0
51112.0,STARLINK-3374,PAYLOAD,2022-09-22 07:24:18,15.08836451,0.0002000999999999,53.2183,205.1576,49.4391,310.6775,8.1901e-05,1.015e-05,0.0,0 STARLINK-3374,1 51112U 22005J   22265.30854902  .00001015  00000-0  81901-4 0  9997,2 51112  53.2183 205.1576 0002001  49.4391 310.6775 15.08836451 38004,6917.891,95.438,541.141,538.372,0.0
51112.0,STARLINK-3374,PAYLOAD,2022-09-23 04:04:19,15.08834478,0.0001983,53.2191,201.2925,48.5831,311.5331,4.1208e-05,3.68e-06,0.0,0 STARLINK-3374,1 51112U 22005J   22266.16967322  .00000368  00000-0  41208-4 0  9999,2 51112  53.2191 201.2925 0001983  48.5831 311.5331 15.08834478 39247,6917.897,95.438,541.134,538.39,0.0
51112.0,STARLINK-3374,PAYLOAD,2022-09-23 07:15:05,15.0883657,0.000199,53.2191,200.6978,48.3667,311.7496,5.317899999999999e-05,5.58e-06,0.0,0 STARLINK-3374,1 51112U 22005J   22266.30215176  .00000558  00000-0  53179-4 0  9999,2 51112  53.2191 200.6978 0001990  48.3667 311.7496 15.08836570 38159,6917.891,95.438,541.133,538.379,0.0
51112.0,STARLINK-3374,PAYLOAD,2022-09-24 00:44:19,15.08848584,0.0002004,53.219,197.4272,47.941,312.1752,0.0001938,2.798e-05,0.0,0 STARLINK-3374,1 51112U 22005J   22267.03078147  .00002798  00000-0  19380-3 0  9998,2 51112  53.2190 197.4272 0002004  47.9410 312.1752 15.08848584 39379,6917.854,95.437,541.105,538.3330000000002,0.0
51112.0,STARLINK-3374,PAYLOAD,2022-09-24 11:52:01,15.08852712,0.0002023,53.219,195.3459,48.4449,311.6716,0.00020649,3.001e-05,0.0,0 STARLINK-3374,1 51112U 22005J   22267.49445787  .00003001  00000-0  20649-3 0  9994,2 51112  53.2190 195.3459 0002023  48.4449 311.6716 15.08852712 38339,6917.842,95.437,541.106,538.307,0.0
51112.0,STARLINK-3374,PAYLOAD,2022-09-25 02:10:30,15.08841128,0.0001924,53.2184,192.6695,47.6131,312.5024,0.00014778,2.065e-05,0.0,0 STARLINK-3374,1 51112U 22005J   22268.09063156  .00002065  00000-0  14778-3 0  9992,2 51112  53.2184 192.6695 0001924  47.6131 312.5024 15.08841128 38423,6917.877,95.437,541.073,538.411,0.0
51112.0,STARLINK-3374,PAYLOAD,2022-09-26 02:01:17,15.08839445,0.0001876999999999,53.2196,188.2114,53.5463,306.5702,4.1285e-05,3.69e-06,0.0,0 STARLINK-3374,1 51112U 22005J   22269.08423251  .00000369  00000-0  41285-4 0  9997,2 51112  53.2196 188.2114 0001877  53.5463 306.5702 15.08839445 39688,6917.882,95.438,541.0459999999998,538.4490000000002,0.0
51112.0,STARLINK-3374,PAYLOAD,2022-09-26 11:33:36,15.08832744,0.0001978,53.2196,186.4261,50.9826,309.1342,1.0908e-05,-1.15e-06,0.0,0 STARLINK-3374,1 51112U 22005J   22269.48167687 -.00000115  00000-0  10908-4 0  9997,2 51112  53.2196 186.4261 0001978  50.9826 309.1342 15.08832744 38635,6917.903,95.438,541.136,538.399,0.0
51112.0,STARLINK-3374,PAYLOAD,2022-09-27 01:52:05,15.08836274,0.0001926,53.2194,183.7498,47.2838,312.8316,8.1682e-05,1.012e-05,0.0,0 STARLINK-3374,1 51112U 22005J   22270.07783899  .00001012  00000-0  81682-4 0  9996,2 51112  53.2194 183.7498 0001926  47.2838 312.8316 15.08836274 38724,6917.892,95.438,541.089,538.424,0.0
51112.0,STARLINK-3374,PAYLOAD,2022-09-28 03:18:15,15.0884408,0.0001738,53.2183,178.9911,43.4524,316.6605,0.00016894,2.402e-05,0.0,0 STARLINK-3374,1 51112U 22005J   22271.13767613  .00002402  00000-0  16894-3 0  9996,2 51112  53.2183 178.9911 0001738  43.4524 316.6605 15.08844080 39996,6917.868,95.437,540.935,538.531,0.0
51112.0,STARLINK-3374,PAYLOAD,2022-09-28 11:15:10,15.0884259,0.0001871,53.2184,177.5043,42.4104,317.7033,0.00016394,2.322e-05,0.0,0 STARLINK-3374,1 51112U 22005J   22271.46887710  .00002322  00000-0  16394-3 0  9999,2 51112  53.2184 177.5043 0001871  42.4104 317.7033 15.08842590 38933,6917.871999999999,95.437,541.0319999999998,538.443,0.0
